{
  "type": "FeatureCollection",
  "features": [
    {
      "type": "Feature",
      "properties": {
        "norad_id": 37094,
        "name": "COSMOS 2251 DEB",
        "group": "cosmos-2251-debris",
        "lat": 30.2452380521016,
        "lon": 130.96084585118425,
        "alt_km": 729.5567314230011,
        "timestamp": "2025-12-12T14:39:18.329779+00:00",
        "meta_object_name": "COSMOS 2251 DEB",
        "meta_object_id": "1993-036BFQ",
        "meta_epoch": "2025-12-10T15:45:11.030688",
        "meta_mean_motion": 14.37808892,
        "meta_eccentricity": 0.0084108,
        "meta_inclination": 74.1091,
        "meta_ra_of_asc_node": 124.9809,
        "meta_arg_of_pericenter": 91.4784,
        "meta_mean_anomaly": 269.6007,
        "meta_ephemeris_type": 0,
        "meta_classification_type": "U",
        "meta_norad_cat_id": 37094,
        "meta_element_set_no": 999,
        "meta_rev_at_epoch": 84476,
        "meta_bstar": 0.0015212,
        "meta_mean_motion_dot": 4.753e-05,
        "meta_mean_motion_ddot": 0,
        "tle_line1": "1 37094U 93036BFQ 25344.65637767  .00004753  00000+0  15212-2 0  9990",
        "tle_line2": "2 37094  74.1091 124.9809 0084108  91.4784 269.6007 14.37808892844763"
      },
      "geometry": {
        "type": "Point",
        "coordinates": [
          130.96084585118425,
          30.2452380521016
        ]
      }
    },
    {
      "type": "Feature",
      "properties": {
        "norad_id": 37095,
        "name": "COSMOS 2251 DEB",
        "group": "cosmos-2251-debris",
        "lat": -19.770277839103763,
        "lon": -175.83934601731903,
        "alt_km": 887.8531991895488,
        "timestamp": "2025-12-12T14:39:18.329788+00:00",
        "meta_object_name": "COSMOS 2251 DEB",
        "meta_object_id": "1993-036BFR",
        "meta_epoch": "2025-12-09T20:01:56.039232",
        "meta_mean_motion": 14.03378058,
        "meta_eccentricity": 0.01946745,
        "meta_inclination": 73.8479,
        "meta_ra_of_asc_node": 195.0272,
        "meta_arg_of_pericenter": 253.3329,
        "meta_mean_anomaly": 104.6357,
        "meta_ephemeris_type": 0,
        "meta_classification_type": "U",
        "meta_norad_cat_id": 37095,
        "meta_element_set_no": 999,
        "meta_rev_at_epoch": 62595,
        "meta_bstar": 0.002528344,
        "meta_mean_motion_dot": 4.65e-05,
        "meta_mean_motion_ddot": 0,
        "tle_line1": "1 37095U 93036BFR 25343.83467638  .00004650  00000+0  25283-2 0  9993",
        "tle_line2": "2 37095  73.8479 195.0272 0194674 253.3329 104.6357 14.03378058625950"
      },
      "geometry": {
        "type": "Point",
        "coordinates": [
          -175.83934601731903,
          -19.770277839103763
        ]
      }
    },
    {
      "type": "Feature",
      "properties": {
        "norad_id": 37108,
        "name": "COSMOS 2251 DEB",
        "group": "cosmos-2251-debris",
        "lat": 1.8114392738220908,
        "lon": 81.3198114830937,
        "alt_km": 815.7769817580984,
        "timestamp": "2025-12-12T14:39:18.329797+00:00",
        "meta_object_name": "COSMOS 2251 DEB",
        "meta_object_id": "1993-036BGE",
        "meta_epoch": "2025-12-12T06:19:01.114176",
        "meta_mean_motion": 14.41295875,
        "meta_eccentricity": 0.00913497,
        "meta_inclination": 74.0444,
        "meta_ra_of_asc_node": 81.4442,
        "meta_arg_of_pericenter": 158.2355,
        "meta_mean_anomaly": 202.2722,
        "meta_ephemeris_type": 0,
        "meta_classification_type": "U",
        "meta_norad_cat_id": 37108,
        "meta_element_set_no": 999,
        "meta_rev_at_epoch": 85500,
        "meta_bstar": 0.0021858638,
        "meta_mean_motion_dot": 7.41e-05,
        "meta_mean_motion_ddot": 0,
        "tle_line1": "1 37108U 93036BGE 25346.26320734  .00007410  00000+0  21859-2 0  9995",
        "tle_line2": "2 37108  74.0444  81.4442 0091349 158.2355 202.2722 14.41295875855003"
      },
      "geometry": {
        "type": "Point",
        "coordinates": [
          81.3198114830937,
          1.8114392738220908
        ]
      }
    },
    {
      "type": "Feature",
      "properties": {
        "norad_id": 37126,
        "name": "COSMOS 2251 DEB",
        "group": "cosmos-2251-debris",
        "lat": -62.04647453609262,
        "lon": -152.36936438300899,
        "alt_km": 573.8611192893277,
        "timestamp": "2025-12-12T14:39:18.329806+00:00",
        "meta_object_name": "COSMOS 2251 DEB",
        "meta_object_id": "1993-036BGY",
        "meta_epoch": "2025-12-10T07:44:48.551424",
        "meta_mean_motion": 14.73059683,
        "meta_eccentricity": 0.0123308,
        "meta_inclination": 73.9536,
        "meta_ra_of_asc_node": 359.2652,
        "meta_arg_of_pericenter": 237.9672,
        "meta_mean_anomaly": 120.9475,
        "meta_ephemeris_type": 0,
        "meta_classification_type": "U",
        "meta_norad_cat_id": 37126,
        "meta_element_set_no": 999,
        "meta_rev_at_epoch": 8063,
        "meta_bstar": 0.00038210319,
        "meta_mean_motion_dot": 2.735e-05,
        "meta_mean_motion_ddot": 0,
        "tle_line1": "1 37126U 93036BGY 25344.32278416  .00002735  00000+0  38210-3 0  9994",
        "tle_line2": "2 37126  73.9536 359.2652 0123308 237.9672 120.9475 14.73059683 80630"
      },
      "geometry": {
        "type": "Point",
        "coordinates": [
          -152.36936438300899,
          -62.04647453609262
        ]
      }
    },
    {
      "type": "Feature",
      "properties": {
        "norad_id": 37132,
        "name": "COSMOS 2251 DEB",
        "group": "cosmos-2251-debris",
        "lat": -58.76787633082601,
        "lon": -153.93657031583788,
        "alt_km": 644.3159470597093,
        "timestamp": "2025-12-12T14:39:18.329815+00:00",
        "meta_object_name": "COSMOS 2251 DEB",
        "meta_object_id": "1993-036BHE",
        "meta_epoch": "2025-12-07T11:27:27.762624",
        "meta_mean_motion": 14.77705967,
        "meta_eccentricity": 0.0039737,
        "meta_inclination": 74.0029,
        "meta_ra_of_asc_node": 244.3909,
        "meta_arg_of_pericenter": 41.7313,
        "meta_mean_anomaly": 318.688,
        "meta_ephemeris_type": 0,
        "meta_classification_type": "U",
        "meta_norad_cat_id": 37132,
        "meta_element_set_no": 999,
        "meta_rev_at_epoch": 62338,
        "meta_bstar": 0.0017835716,
        "meta_mean_motion_dot": 0.00012942,
        "meta_mean_motion_ddot": 0,
        "tle_line1": "1 37132U 93036BHE 25341.47740466  .00012942  00000+0  17836-2 0  9994",
        "tle_line2": "2 37132  74.0029 244.3909 0039737  41.7313 318.6880 14.77705967623388"
      },
      "geometry": {
        "type": "Point",
        "coordinates": [
          -153.93657031583788,
          -58.76787633082601
        ]
      }
    },
    {
      "type": "Feature",
      "properties": {
        "norad_id": 37270,
        "name": "COSMOS 2251 DEB",
        "group": "cosmos-2251-debris",
        "lat": 28.879818594418122,
        "lon": 146.95533985005318,
        "alt_km": 1314.3204506397287,
        "timestamp": "2025-12-12T14:39:18.329824+00:00",
        "meta_object_name": "COSMOS 2251 DEB",
        "meta_object_id": "1993-036BHJ",
        "meta_epoch": "2025-12-11T23:47:57.410016",
        "meta_mean_motion": 13.59790931,
        "meta_eccentricity": 0.0398789,
        "meta_inclination": 73.9366,
        "meta_ra_of_asc_node": 337.1089,
        "meta_arg_of_pericenter": 349.077,
        "meta_mean_anomaly": 10.1863,
        "meta_ephemeris_type": 0,
        "meta_classification_type": "U",
        "meta_norad_cat_id": 37270,
        "meta_element_set_no": 999,
        "meta_rev_at_epoch": 77059,
        "meta_bstar": 0.0068871,
        "meta_mean_motion_dot": 8.647e-05,
        "meta_mean_motion_ddot": 0,
        "tle_line1": "1 37270U 93036BHJ 25345.99163669  .00008647  00000+0  68871-2 0  9994",
        "tle_line2": "2 37270  73.9366 337.1089 0398789 349.0770  10.1863 13.59790931770594"
      },
      "geometry": {
        "type": "Point",
        "coordinates": [
          146.95533985005318,
          28.879818594418122
        ]
      }
    },
    {
      "type": "Feature",
      "properties": {
        "norad_id": 37278,
        "name": "COSMOS 2251 DEB",
        "group": "cosmos-2251-debris",
        "lat": 32.59571024825844,
        "lon": 158.81645682497557,
        "alt_km": 644.1531426562105,
        "timestamp": "2025-12-12T14:39:18.329833+00:00",
        "meta_object_name": "COSMOS 2251 DEB",
        "meta_object_id": "1993-036BHS",
        "meta_epoch": "2025-12-04T09:26:36.152736",
        "meta_mean_motion": 14.15029915,
        "meta_eccentricity": 0.029998,
        "meta_inclination": 73.7864,
        "meta_ra_of_asc_node": 4.3592,
        "meta_arg_of_pericenter": 188.2556,
        "meta_mean_anomaly": 234.4903,
        "meta_ephemeris_type": 0,
        "meta_classification_type": "U",
        "meta_norad_cat_id": 37278,
        "meta_element_set_no": 999,
        "meta_rev_at_epoch": 63711,
        "meta_bstar": 0.0023061,
        "meta_mean_motion_dot": 6.884e-05,
        "meta_mean_motion_ddot": 0,
        "tle_line1": "1 37278U 93036BHS 25338.39347399  .00006884  00000+0  23061-2 0  9995",
        "tle_line2": "2 37278  73.7864   4.3592 0299980 188.2556 234.4903 14.15029915637119"
      },
      "geometry": {
        "type": "Point",
        "coordinates": [
          158.81645682497557,
          32.59571024825844
        ]
      }
    }
  ]
}